OBJECT_NAME,OBJECT_ID,EPOCH,MEAN_MOTION,ECCENTRICITY,INCLINATION,RA_OF_ASC_NODE,ARG_OF_PERICENTER,MEAN_ANOMALY,EPHEMERIS_TYPE,CLASSIFICATION_TYPE,NORAD_CAT_ID,ELEMENT_SET_NO,REV_AT_EPOCH,BSTAR,MEAN_MOTION_DOT,MEAN_MOTION_DDOT
STARLINK-32897,2025-029V,2026-07-17T10:27:11.467296,15.34406742,.000119,53.1603,347.5717,84.9966,275.1172,0,U,62967,999,8121,.38614E-3,.12695E-3,0
STARLINK-32863,2025-029W,2026-07-17T19:58:10.360704,15.31721250,.00010461,53.1602,347.2020,94.2481,265.8640,0,U,62968,999,8039,.36349377E-3,.10939E-3,0
STARLINK-32894,2025-029X,2026-07-17T22:00:01.999584,15.33544301,.00013743,53.1613,347.2693,69.2681,162.0930,0,U,62969,999,576,.11765796E-2,.38516E-3,0
STARLINK-32826,2025-029Y,2026-07-17T19:29:55.267008,15.30208838,.0000756,53.1620,347.7828,78.6793,281.4293,0,U,62970,999,8124,.30626728E-3,.8725E-4,0
HULIANWANG DIGUI-11,2025-030A,2026-07-17T21:48:26.327520,13.29324577,.00009618,50.0002,125.6311,281.5944,78.4820,0,U,62971,999,6994,.53469593E-4,-.99E-6,0
HULIANWANG DIGUI-12,2025-030B,2026-07-17T22:00:24.805728,13.29322360,.00009285,50.0017,125.7366,280.7512,79.3256,0,U,62972,999,6994,.52930411E-4,-.99E-6,0
HULIANWANG DIGUI-13,2025-030C,2026-07-17T21:36:13.148352,13.29324509,.00007264,50.0021,125.6646,281.7807,78.2984,0,U,62973,999,6994,.35012312E-4,-.108E-5,0
HULIANWANG DIGUI-14,2025-030D,2026-07-17T21:00:12.915936,13.29327487,.00007348,50.0026,125.5575,285.3702,74.7089,0,U,62974,999,6994,.36978371E-4,-.107E-5,0
HULIANWANG DIGUI-15,2025-030E,2026-07-17T21:24:13.625568,13.29324518,.00008302,50.0021,125.6243,284.4105,75.6675,0,U,62975,999,6994,.36585259E-4,-.107E-5,0
HULIANWANG DIGUI-16,2025-030F,2026-07-17T20:48:18.220320,13.29325570,.00007111,50.0043,125.5846,284.0790,76.0004,0,U,62976,999,6994,.39304862E-4,-.106E-5,0
HULIANWANG DIGUI-17,2025-030G,2026-07-17T20:36:07.906176,13.29325692,.00008292,50.0056,125.5924,275.8883,84.1895,0,U,62977,999,6994,.47953376E-4,-.102E-5,0
HULIANWANG DIGUI-18,2025-030H,2026-07-17T22:12:19.827072,13.29327666,.00008547,50.0060,125.2939,275.4107,84.6668,0,U,62978,999,6995,.49400126E-4,-.101E-5,0
HULIANWANG DIGUI-19,2025-030J,2026-07-17T21:12:23.650848,13.29319084,.00007456,50.0045,125.6792,274.1035,85.9752,0,U,62979,999,6994,.40446421E-4,-.105E-5,0
STARLINK-11543 [DTC],2025-031A,2026-07-17T16:49:04.329984,15.70830798,.00015473,42.9990,297.4516,260.0555,100.0138,0,U,62981,999,8319,.51304113E-3,.6588E-3,0
STARLINK-11458 [DTC],2025-031B,2026-07-17T08:02:39.007680,15.70888966,.0003052,43.0035,299.8840,286.5804,73.4728,0,U,62982,999,8313,.83496E-3,.108332E-2,0
STARLINK-11417 [DTC],2025-031C,2026-07-17T16:33:58.679136,15.70997362,.00004259,42.9962,298.2612,324.9675,35.1164,0,U,62983,999,8318,.10494304E-2,.137361E-2,0
STARLINK-11544 [DTC],2025-031D,2026-07-17T15:32:48.110784,15.70841883,.00020346,42.9990,297.9196,257.3413,102.7227,0,U,62984,999,8315,.75056132E-3,.97E-3,0
STARLINK-11582 [DTC],2025-031E,2026-07-17T17:27:17.985600,15.70837511,.00019473,43.0008,297.6647,268.4205,91.6439,0,U,62985,999,8319,.4128033E-3,.52853E-3,0
STARLINK-11571 [DTC],2025-031F,2026-07-17T16:41:25.798272,15.70845550,.00013655,43.0010,297.4091,284.1218,75.9498,0,U,62986,999,8319,.75814885E-3,.98009E-3,0
STARLINK-11539 [DTC],2025-031G,2026-07-17T08:10:17.534208,15.70826433,.0003526,42.9987,299.9195,296.5206,63.5300,0,U,62987,999,8313,.12412E-2,.161888E-2,0
STARLINK-11542 [DTC],2025-031H,2026-07-17T16:56:42.957600,15.70846804,.00018596,42.9993,297.4917,263.7614,96.3042,0,U,62988,999,8316,.93491882E-3,.121317E-2,0
STARLINK-11573 [DTC],2025-031J,2026-07-17T16:11:02.008320,15.70847195,.00014991,42.9995,298.1332,274.4336,85.6361,0,U,62989,999,8315,.71475095E-3,.92316E-3,0
STARLINK-11572 [DTC],2025-031K,2026-07-17T14:02:33.345024,15.70874945,.0000791,42.9997,298.3080,203.0130,157.0702,0,U,62990,999,8317,.98365E-3,.127914E-2,0
STARLINK-11583 [DTC],2025-031L,2026-07-17T14:47:06.948096,15.70846415,.0001794,42.9992,298.5558,256.6925,103.3742,0,U,62991,999,8318,.75582E-3,.97709E-3,0
STARLINK-11570 [DTC],2025-031M,2026-07-17T16:26:19.143456,15.70850086,.00022544,43.0023,298.2150,263.8924,96.1687,0,U,62992,999,8317,.74042998E-3,.95705E-3,0
STARLINK-11576 [DTC],2025-031N,2026-07-17T08:25:34.934592,15.70829754,.0003911,42.9985,300.0016,292.3798,67.6655,0,U,62993,999,8312,.91795E-3,.119019E-2,0
STARLINK-32899,2025-031P,2026-07-17T19:51:31.902048,15.27585668,.00003165,42.9972,128.7731,340.7124,19.3716,0,U,62994,999,8099,.49361704E-3,.13348E-3,0
STARLINK-32819,2025-031Q,2026-07-17T20:37:34.329504,15.27584564,.00015691,43.0024,128.1504,286.1337,73.9342,0,U,62995,999,8100,.15254163E-3,.3938E-4,0
STARLINK-32703,2025-031R,2026-07-17T19:44:07.709280,15.27589713,.00004508,42.9985,128.7363,325.4841,34.5981,0,U,62996,999,8099,.31884555E-3,.8525E-4,0
STARLINK-32881,2025-031S,2026-07-17T20:22:45.863616,15.27590739,.00007859,42.9994,128.0709,259.7220,100.3544,0,U,62997,999,8100,.26335327E-4,.463E-5,0
STARLINK-32898,2025-031T,2026-07-17T19:34:52.360320,15.27591433,.00010382,42.9991,128.6864,292.4572,67.6169,0,U,62998,999,8099,.39267593E-3,.10563E-3,0
STARLINK-32658,2025-031U,2026-07-17T20:28:19.197408,15.27588939,.00002775,42.9992,128.1020,309.5434,50.5393,0,U,62999,999,8100,.49506655E-3,.1339E-3,0
STARLINK-32673,2025-031V,2026-07-17T03:38:30.140736,15.27581893,.00016895,43.0049,132.2947,260.3425,99.7236,0,U,63000,999,8089,.2777798E-3,.739E-4,0
STARLINK-32437,2025-031W,2026-07-17T12:06:17.696736,15.27578778,.0000937,43.0028,130.6447,273.9137,86.1607,0,U,63001,999,8094,.29743E-3,.7931E-4,0
FOSSASAT-2E20 (TAT-O),2025-009DN,2026-07-17T23:00:37.520640,15.30438763,.00028684,97.3155,274.3704,187.2979,172.8220,0,U,63003,999,14121,.26370733E-3,.7688E-4,0
STARLINK-11448 [DTC],2025-032A,2026-07-17T21:09:05.177952,15.70842963,.00037982,43.0016,130.2292,297.1485,62.8996,0,U,63005,999,8270,.79754559E-3,.103206E-2,0
STARLINK-11553 [DTC],2025-032B,2026-07-17T20:53:58.601760,15.70916287,.00017029,42.9981,131.0346,207.4090,152.6688,0,U,63006,999,8268,.10249258E-2,.133627E-2,0
STARLINK-11526 [DTC],2025-032C,2026-07-17T04:14:16.499904,15.70863708,.00025657,43.0024,134.3964,267.1036,92.9538,0,U,63007,999,8258,.7781091E-3,.10072E-2,0
STARLINK-11405 [DTC],2025-032D,2026-07-17T20:39:59.999040,15.70915457,.00010728,42.9996,130.9569,86.1503,273.9487,0,U,63008,999,8253,.79566453E-3,.103249E-2,0
STARLINK-11586 [DTC],2025-032E,2026-07-17T05:00:09.265248,15.70856228,.0001448,43.0015,134.6552,277.3110,82.7593,0,U,63009,999,8258,.83039E-3,.107563E-2,0
STARLINK-11574 [DTC],2025-032F,2026-07-17T20:31:02.489088,15.70903914,.00014413,43.0009,130.9086,264.2140,95.8564,0,U,63010,999,8268,.95595172E-3,.124398E-2,0
STARLINK-11580 [DTC],2025-032G,2026-07-17T12:15:01.152864,15.70856998,.0001134,43.0013,132.6100,277.8898,82.1841,0,U,63011,999,8248,.94845E-3,.123156E-2,0
STARLINK-11449 [DTC],2025-032H,2026-07-17T20:08:06.375552,15.70875034,.00009606,42.9996,130.7787,265.4416,94.6342,0,U,63012,999,8268,.10701259E-2,.139392E-2,0
STARLINK-11577 [DTC],2025-032J,2026-07-17T12:45:35.799840,15.70904293,.0001938,43.0001,132.7801,275.7179,84.3468,0,U,63013,999,8263,.11389E-2,.148738E-2,0
STARLINK-11578 [DTC],2025-032K,2026-07-17T20:46:19.714080,15.70942293,.00019026,43.0007,130.9907,249.8039,110.2624,0,U,63014,999,8263,.14126405E-2,.185718E-2,0
STARLINK-11541 [DTC],2025-032L,2026-07-17T19:45:09.860256,15.70847901,.00014065,43.0007,130.6473,260.0295,100.0414,0,U,63015,999,8269,.15619659E-3,.19647E-3,0
STARLINK-11545 [DTC],2025-032M,2026-07-17T20:00:27.476640,15.70891654,.00011032,43.0002,130.7337,263.5947,96.4795,0,U,63016,999,8269,.13368202E-2,.175123E-2,0
STARLINK-11400 [DTC],2025-032N,2026-07-17T20:38:41.238528,15.70893031,.00000933,42.9980,130.9451,143.3949,216.6925,0,U,63017,999,8268,.7631665E-3,.98869E-3,0
STARLINK-32870,2025-032P,2026-07-17T20:06:41.619744,15.27582684,.000144,43.0016,321.1141,271.7076,88.3611,0,U,63018,999,8052,.20597682E-3,.5411E-4,0
STARLINK-32872,2025-032Q,2026-07-17T15:55:42.746016,15.27580026,.00015493,43.0019,322.3915,277.8395,82.2281,0,U,63019,999,8049,.37051311E-3,.9947E-4,0
STARLINK-32677,2025-032R,2026-07-17T09:13:09.346080,15.27583892,.0002265,43.0052,323.7347,288.2958,71.7648,0,U,63020,999,8044,.30634E-3,.8178E-4,0
STARLINK-32929,2025-032S,2026-07-17T15:35:19.877568,15.27573252,.0001725,43.0020,322.2823,275.7247,84.3408,0,U,63021,999,8049,.20334E-3,.5336E-4,0
STARLINK-32944,2025-032T,2026-07-17T17:35:23.685792,15.27583515,.00011588,43.0027,322.0522,275.6255,84.4465,0,U,63022,999,8050,.35357815E-3,.9481E-4,0
STARLINK-32943,2025-032U,2026-07-17T19:40:47.288064,15.27586533,.00026442,43.0001,320.9814,248.0571,112.0000,0,U,63023,999,8052,.5164393E-3,.13979E-3,0
STARLINK-32803,2025-032V,2026-07-17T16:26:55.607712,15.27585802,.0001516,42.9999,321.6850,264.5236,95.5442,0,U,63024,999,8034,.25849658E-3,.6859E-4,0
STARLINK-32926,2025-032W,2026-07-17T17:51:49.248864,15.27588981,.00017873,43.0044,321.2624,271.9468,88.1179,0,U,63025,999,8051,-.13902845E-4,-.645E-5,0
GLOBAL-31,2025-033B,2026-07-17T22:06:24.273792,15.38343706,.0012272,58.9968,191.9649,58.0760,302.1507,0,U,63027,999,7905,.16392205E-3,.5929E-4,0
STARLINK-32798,2025-034A,2026-07-17T20:07:46.562304,15.34399361,.00011087,53.1612,25.6435,104.3323,255.7803,0,U,63029,999,7884,.23139312E-3,.7449E-4,0
STARLINK-32779,2025-034B,2026-07-17T21:44:36.087936,15.34402220,.00012384,53.1612,25.3536,109.4368,250.6768,0,U,63030,999,7885,.31232441E-3,.10191E-3,0
STARLINK-32716,2025-034C,2026-07-17T20:40:10.095744,15.34402705,.00009044,53.1606,11.5794,94.7657,265.3449,0,U,63031,999,7904,.32603545E-3,.10656E-3,0
STARLINK-32776,2025-034D,2026-07-17T21:13:29.923968,15.34403491,.00011289,53.1600,11.7177,100.8018,259.3112,0,U,63032,999,7904,.34658899E-3,.11353E-3,0
STARLINK-32772,2025-034E,2026-07-17T19:20:34.817856,15.31712564,.00011416,53.1604,13.3686,95.4797,264.6335,0,U,63033,999,7901,.30387489E-3,.908E-4,0
STARLINK-32830,2025-034F,2026-07-17T21:28:01.872768,15.31689685,.00011355,53.1605,12.4936,100.4504,259.6626,0,U,63034,999,7903,.16429138E-3,.4735E-4,0
